{
  "type": "FeatureCollection",
  "features": [
    {
      "type": "Feature",
      "properties": {
        "norad_id": 34833,
        "name": "IRIDIUM 33 DEB",
        "group": "iridium-33-debris",
        "lat": 12.54706134019298,
        "lon": -135.46742219990534,
        "alt_km": 723.8844183647543,
        "timestamp": "2025-12-25T20:42:39.073298+00:00",
        "meta_object_name": "IRIDIUM 33 DEB",
        "meta_object_id": "1997-051MH",
        "meta_epoch": "2025-12-25T03:41:55.955040",
        "meta_mean_motion": 14.52445714,
        "meta_eccentricity": 0.00212125,
        "meta_inclination": 86.392,
        "meta_ra_of_asc_node": 45.6427,
        "meta_arg_of_pericenter": 60.5009,
        "meta_mean_anomaly": 2.6128,
        "meta_ephemeris_type": 0,
        "meta_classification_type": "U",
        "meta_norad_cat_id": 34833,
        "meta_element_set_no": 999,
        "meta_rev_at_epoch": 87895,
        "meta_bstar": 0.00071681957,
        "meta_mean_motion_dot": 2.951e-05,
        "meta_mean_motion_ddot": 0,
        "tle_line1": "1 34833U 97051MH  25359.15411985  .00002951  00000+0  71682-3 0  9994",
        "tle_line2": "2 34833  86.3920  45.6427 0021212  60.5009   2.6128 14.52445714878950"
      },
      "geometry": {
        "type": "Point",
        "coordinates": [
          -135.46742219990534,
          12.54706134019298
        ]
      }
    },
    {
      "type": "Feature",
      "properties": {
        "norad_id": 34870,
        "name": "IRIDIUM 33 DEB",
        "group": "iridium-33-debris",
        "lat": -18.129616410690193,
        "lon": 129.28315997866025,
        "alt_km": 638.7945765756313,
        "timestamp": "2025-12-25T20:42:39.073308+00:00",
        "meta_object_name": "IRIDIUM 33 DEB",
        "meta_object_id": "1997-051MQ",
        "meta_epoch": "2025-12-25T07:29:33.959904",
        "meta_mean_motion": 14.76668007,
        "meta_eccentricity": 0.00181481,
        "meta_inclination": 86.3111,
        "meta_ra_of_asc_node": 308.325,
        "meta_arg_of_pericenter": 138.8119,
        "meta_mean_anomaly": 13.1558,
        "meta_ephemeris_type": 0,
        "meta_classification_type": "U",
        "meta_norad_cat_id": 34870,
        "meta_element_set_no": 999,
        "meta_rev_at_epoch": 89096,
        "meta_bstar": 0.001590834,
        "meta_mean_motion_dot": 0.00011183,
        "meta_mean_motion_ddot": 0,
        "tle_line1": "1 34870U 97051MQ  25359.31219861  .00011183  00000+0  15908-2 0  9997",
        "tle_line2": "2 34870  86.3111 308.3250 0018148 138.8119  13.1558 14.76668007890968"
      },
      "geometry": {
        "type": "Point",
        "coordinates": [
          129.28315997866025,
          -18.129616410690193
        ]
      }
    },
    {
      "type": "Feature",
      "properties": {
        "norad_id": 34896,
        "name": "IRIDIUM 33 DEB",
        "group": "iridium-33-debris",
        "lat": -81.75601079206966,
        "lon": -65.49698600291474,
        "alt_km": 686.0742364316593,
        "timestamp": "2025-12-25T20:42:39.073317+00:00",
        "meta_object_name": "IRIDIUM 33 DEB",
        "meta_object_id": "1997-051MY",
        "meta_epoch": "2025-12-24T04:12:44.288640",
        "meta_mean_motion": 14.66381715,
        "meta_eccentricity": 0.00257287,
        "meta_inclination": 86.3299,
        "meta_ra_of_asc_node": 321.5555,
        "meta_arg_of_pericenter": 173.6101,
        "meta_mean_anomaly": 201.3064,
        "meta_ephemeris_type": 0,
        "meta_classification_type": "U",
        "meta_norad_cat_id": 34896,
        "meta_element_set_no": 999,
        "meta_rev_at_epoch": 87787,
        "meta_bstar": 0.00093038371,
        "meta_mean_motion_dot": 5.188e-05,
        "meta_mean_motion_ddot": 0,
        "tle_line1": "1 34896U 97051MY  25358.17551260  .00005188  00000+0  93038-3 0  9999",
        "tle_line2": "2 34896  86.3299 321.5555 0025728 173.6101 201.3064 14.66381715877873"
      },
      "geometry": {
        "type": "Point",
        "coordinates": [
          -65.49698600291474,
          -81.75601079206966
        ]
      }
    },
    {
      "type": "Feature",
      "properties": {
        "norad_id": 34926,
        "name": "IRIDIUM 33 DEB",
        "group": "iridium-33-debris",
        "lat": 5.633731063485202,
        "lon": -178.19735608256016,
        "alt_km": 696.0488366837162,
        "timestamp": "2025-12-25T20:42:39.073328+00:00",
        "meta_object_name": "IRIDIUM 33 DEB",
        "meta_object_id": "1997-051NF",
        "meta_epoch": "2025-12-24T11:35:50.045568",
        "meta_mean_motion": 14.54934016,
        "meta_eccentricity": 0.00742773,
        "meta_inclination": 86.1319,
        "meta_ra_of_asc_node": 2.8252,
        "meta_arg_of_pericenter": 252.0201,
        "meta_mean_anomaly": 260.7718,
        "meta_ephemeris_type": 0,
        "meta_classification_type": "U",
        "meta_norad_cat_id": 34926,
        "meta_element_set_no": 999,
        "meta_rev_at_epoch": 86627,
        "meta_bstar": 0.0058051773,
        "meta_mean_motion_dot": 0.00025989,
        "meta_mean_motion_ddot": 0,
        "tle_line1": "1 34926U 97051NF  25358.48321812  .00025989  00000+0  58052-2 0  9992",
        "tle_line2": "2 34926  86.1319   2.8252 0074277 252.0201 260.7718 14.54934016866279"
      },
      "geometry": {
        "type": "Point",
        "coordinates": [
          -178.19735608256016,
          5.633731063485202
        ]
      }
    },
    {
      "type": "Feature",
      "properties": {
        "norad_id": 34985,
        "name": "IRIDIUM 33 DEB",
        "group": "iridium-33-debris",
        "lat": 61.76534396553383,
        "lon": 58.07325580736111,
        "alt_km": 752.1483864528991,
        "timestamp": "2025-12-25T20:42:39.073354+00:00",
        "meta_object_name": "IRIDIUM 33 DEB",
        "meta_object_id": "1997-051NR",
        "meta_epoch": "2025-12-24T21:41:40.078176",
        "meta_mean_motion": 14.42058691,
        "meta_eccentricity": 0.0022059,
        "meta_inclination": 86.3682,
        "meta_ra_of_asc_node": 51.6896,
        "meta_arg_of_pericenter": 179.2427,
        "meta_mean_anomaly": 307.5347,
        "meta_ephemeris_type": 0,
        "meta_classification_type": "U",
        "meta_norad_cat_id": 34985,
        "meta_element_set_no": 999,
        "meta_rev_at_epoch": 87350,
        "meta_bstar": 0.00065683,
        "meta_mean_motion_dot": 2.182e-05,
        "meta_mean_motion_ddot": 0,
        "tle_line1": "1 34985U 97051NR  25358.90393609  .00002182  00000+0  65683-3 0  9996",
        "tle_line2": "2 34985  86.3682  51.6896 0022059 179.2427 307.5347 14.42058691873501"
      },
      "geometry": {
        "type": "Point",
        "coordinates": [
          58.07325580736111,
          61.76534396553383
        ]
      }
    },
    {
      "type": "Feature",
      "properties": {
        "norad_id": 35051,
        "name": "IRIDIUM 33 DEB",
        "group": "iridium-33-debris",
        "lat": -78.09637178144759,
        "lon": -159.10095009828876,
        "alt_km": 747.3575387898618,
        "timestamp": "2025-12-25T20:42:39.073365+00:00",
        "meta_object_name": "IRIDIUM 33 DEB",
        "meta_object_id": "1997-051NX",
        "meta_epoch": "2025-12-22T18:31:37.744896",
        "meta_mean_motion": 14.47639956,
        "meta_eccentricity": 0.0010302,
        "meta_inclination": 86.324,
        "meta_ra_of_asc_node": 4.4893,
        "meta_arg_of_pericenter": 63.2582,
        "meta_mean_anomaly": 296.9674,
        "meta_ephemeris_type": 0,
        "meta_classification_type": "U",
        "meta_norad_cat_id": 35051,
        "meta_element_set_no": 999,
        "meta_rev_at_epoch": 87141,
        "meta_bstar": 0.00060447572,
        "meta_mean_motion_dot": 2.248e-05,
        "meta_mean_motion_ddot": 0,
        "tle_line1": "1 35051U 97051NX  25356.77196464  .00002248  00000+0  60448-3 0  9991",
        "tle_line2": "2 35051  86.3240   4.4893 0010302  63.2582 296.9674 14.47639956871417"
      },
      "geometry": {
        "type": "Point",
        "coordinates": [
          -159.10095009828876,
          -78.09637178144759
        ]
      }
    },
    {
      "type": "Feature",
      "properties": {
        "norad_id": 35052,
        "name": "IRIDIUM 33 DEB",
        "group": "iridium-33-debris",
        "lat": -22.87946155314345,
        "lon": 13.29709416823653,
        "alt_km": 765.8144705368613,
        "timestamp": "2025-12-25T20:42:39.073375+00:00",
        "meta_object_name": "IRIDIUM 33 DEB",
        "meta_object_id": "1997-051NY",
        "meta_epoch": "2025-12-25T00:47:01.040352",
        "meta_mean_motion": 14.38506119,
        "meta_eccentricity": 0.00130776,
        "meta_inclination": 86.3301,
        "meta_ra_of_asc_node": 15.205,
        "meta_arg_of_pericenter": 50.4625,
        "meta_mean_anomaly": 309.7726,
        "meta_ephemeris_type": 0,
        "meta_classification_type": "U",
        "meta_norad_cat_id": 35052,
        "meta_element_set_no": 999,
        "meta_rev_at_epoch": 87452,
        "meta_bstar": 0.00019003838,
        "meta_mean_motion_dot": 6.01e-06,
        "meta_mean_motion_ddot": 0,
        "tle_line1": "1 35052U 97051NY  25359.03265093  .00000601  00000+0  19004-3 0  9992",
        "tle_line2": "2 35052  86.3301  15.2050 0013077  50.4625 309.7726 14.38506119874529"
      },
      "geometry": {
        "type": "Point",
        "coordinates": [
          13.29709416823653,
          -22.87946155314345
        ]
      }
    }
  ]
}